{
  "norad_id": 67104,
  "name": "STARLINK-36258",
  "history": [
    {
      "epoch": "2026-03-28T15:36:56.821824Z",
      "apogee_km": 484.1265221494896,
      "perigee_km": 481.85823277730015,
      "latitude_deg": 2.000342498336767e-05,
      "longitude_deg": 1.8221104464071198,
      "height_km": 482.5525990599788,
      "semi_major_axis_km": 6861.129377463395,
      "eccentricity": 0.0001653,
      "inclination_deg": 43.004,
      "raan_deg": 62.1269,
      "arg_perigee_deg": 281.0375,
      "mean_anomaly_deg": 79.0291,
      "mean_motion_rev_day": 15.27598942
    },
    {
      "epoch": "2026-03-29T23:00:04.531392Z",
      "apogee_km": 484.0225501074174,
      "perigee_km": 481.9902794279624,
      "latitude_deg": -5.686474400014246e-05,
      "longitude_deg": -117.636350019523,
      "height_km": 482.9983730457634,
      "semi_major_axis_km": 6861.143414767689,
      "eccentricity": 0.0001481,
      "inclination_deg": 43.0038,
      "raan_deg": 54.7396,
      "arg_perigee_deg": 257.7951,
      "mean_anomaly_deg": 102.2734,
      "mean_motion_rev_day": 15.27594254
    },
    {
      "epoch": "2026-03-30T05:16:41.874240Z",
      "apogee_km": 484.01153541459917,
      "perigee_km": 481.97926799721336,
      "latitude_deg": 1.2311589403431952e-06,
      "longitude_deg": 146.47222814399908,
      "height_km": 482.96252818536215,
      "semi_major_axis_km": 6861.132401705906,
      "eccentricity": 0.0001481,
      "inclination_deg": 43.0038,
      "raan_deg": 53.2615,
      "arg_perigee_deg": 259.2241,
      "mean_anomaly_deg": 100.8444,
      "mean_motion_rev_day": 15.27597932
    },
    {
      "epoch": "2026-03-30T14:41:38.784480Z",
      "apogee_km": 483.57762213815477,
      "perigee_km": 482.5345835626604,
      "latitude_deg": -1.0235919792844566e-06,
      "longitude_deg": 2.6327066826850216,
      "height_km": 482.59525821875275,
      "semi_major_axis_km": 6861.193102850408,
      "eccentricity": 7.601e-05,
      "inclination_deg": 43.0024,
      "raan_deg": 51.0458,
      "arg_perigee_deg": 297.0553,
      "mean_anomaly_deg": 63.0221,
      "mean_motion_rev_day": 15.2757766
    },
    {
      "epoch": "2026-03-31T20:30:37.489248Z",
      "apogee_km": 483.8182686272248,
      "perigee_km": 482.25254908352326,
      "latitude_deg": 2.0655625269566157e-06,
      "longitude_deg": -92.85150378770099,
      "height_km": 482.84001125509786,
      "semi_major_axis_km": 6861.172408855374,
      "eccentricity": 0.0001141,
      "inclination_deg": 43.0021,
      "raan_deg": 44.0307,
      "arg_perigee_deg": 267.9583,
      "mean_anomaly_deg": 92.1138,
      "mean_motion_rev_day": 15.27584571
    },
    {
      "epoch": "2026-04-01T13:46:20.735040Z",
      "apogee_km": 483.7550670728406,
      "perigee_km": 482.2469889342856,
      "latitude_deg": 9.844741266843145e-06,
      "longitude_deg": 3.4453889475369803,
      "height_km": 482.73946224450157,
      "semi_major_axis_km": 6861.138028003563,
      "eccentricity": 0.0001099,
      "inclination_deg": 43.0023,
      "raan_deg": 39.9667,
      "arg_perigee_deg": 272.9092,
      "mean_anomaly_deg": 87.1634,
      "mean_motion_rev_day": 15.27596053
    }
  ]
}